{
  "links" : {
    "next" : "https://api.nasa.gov/neo/rest/v1/feed?start_date=2006-07-09&end_date=2006-07-09&detailed=true&api_key=t0TVs3DtDT2H8Oy2Zy8m2eVrNsAVKAexjcZXUckd",
    "prev" : "https://api.nasa.gov/neo/rest/v1/feed?start_date=2006-07-07&end_date=2006-07-07&detailed=true&api_key=t0TVs3DtDT2H8Oy2Zy8m2eVrNsAVKAexjcZXUckd",
    "self" : "https://api.nasa.gov/neo/rest/v1/feed?start_date=2006-07-08&end_date=2006-07-08&detailed=true&api_key=t0TVs3DtDT2H8Oy2Zy8m2eVrNsAVKAexjcZXUckd"
  },
  "element_count" : 4,
  "near_earth_objects" : {
    "2006-07-08" : [ {
      "links" : {
        "self" : "https://api.nasa.gov/neo/rest/v1/neo/2378160?api_key=t0TVs3DtDT2H8Oy2Zy8m2eVrNsAVKAexjcZXUckd"
      },
      "neo_reference_id" : "2378160",
      "name" : "378160 (2006 WX1)",
      "nasa_jpl_url" : "http://ssd.jpl.nasa.gov/sbdb.cgi?sstr=2378160",
      "absolute_magnitude_h" : 19.5,
      "estimated_diameter" : {
        "kilometers" : {
          "estimated_diameter_min" : 0.3346223745,
          "estimated_diameter_max" : 0.7482383761
        },
        "meters" : {
          "estimated_diameter_min" : 334.6223744549,
          "estimated_diameter_max" : 748.2383760735
        },
        "miles" : {
          "estimated_diameter_min" : 0.2079246394,
          "estimated_diameter_max" : 0.464933628
        },
        "feet" : {
          "estimated_diameter_min" : 1097.8424710066,
          "estimated_diameter_max" : 2454.8503937571
        }
      },
      "is_potentially_hazardous_asteroid" : true,
      "close_approach_data" : [ {
        "close_approach_date" : "2006-07-08",
        "epoch_date_close_approach" : 1152342000000,
        "relative_velocity" : {
          "kilometers_per_second" : "12.9467423746",
          "kilometers_per_hour" : "46608.2725487026",
          "miles_per_hour" : "28960.5680178313"
        },
        "miss_distance" : {
          "astronomical" : "0.3757835299",
          "lunar" : "146.1797943115",
          "kilometers" : "56216416",
          "miles" : "34931260"
        },
        "orbiting_body" : "Earth"
      } ],
      "orbital_data" : {
        "orbit_id" : "48",
        "orbit_determination_date" : "2017-04-06 09:22:21",
        "orbit_uncertainty" : "0",
        "minimum_orbit_intersection" : ".0282692",
        "jupiter_tisserand_invariant" : "6.461",
        "epoch_osculation" : "2458000.5",
        "eccentricity" : ".3002011815494489",
        "semi_major_axis" : ".9166033554924886",
        "inclination" : "11.64345008786734",
        "ascending_node_longitude" : "328.0127933513828",
        "orbital_period" : "320.5314078192002",
        "perihelion_distance" : ".641437945161454",
        "perihelion_argument" : "290.9180223602269",
        "aphelion_distance" : "1.191768765823523",
        "perihelion_time" : "2458076.929126480815",
        "mean_anomaly" : "274.1597832165854",
        "mean_motion" : "1.123134866718155",
        "equinox" : "J2000"
      }
    }, {
      "links" : {
        "self" : "https://api.nasa.gov/neo/rest/v1/neo/2458452?api_key=t0TVs3DtDT2H8Oy2Zy8m2eVrNsAVKAexjcZXUckd"
      },
      "neo_reference_id" : "2458452",
      "name" : "458452 (2011 BR15)",
      "nasa_jpl_url" : "http://ssd.jpl.nasa.gov/sbdb.cgi?sstr=2458452",
      "absolute_magnitude_h" : 20.0,
      "estimated_diameter" : {
        "kilometers" : {
          "estimated_diameter_min" : 0.2658,
          "estimated_diameter_max" : 0.5943468684
        },
        "meters" : {
          "estimated_diameter_min" : 265.8,
          "estimated_diameter_max" : 594.3468684194
        },
        "miles" : {
          "estimated_diameter_min" : 0.1651604118,
          "estimated_diameter_max" : 0.369309908
        },
        "feet" : {
          "estimated_diameter_min" : 872.047272,
          "estimated_diameter_max" : 1949.9569797852
        }
      },
      "is_potentially_hazardous_asteroid" : false,
      "close_approach_data" : [ {
        "close_approach_date" : "2006-07-08",
        "epoch_date_close_approach" : 1152342000000,
        "relative_velocity" : {
          "kilometers_per_second" : "13.2728233982",
          "kilometers_per_hour" : "47782.1642336496",
          "miles_per_hour" : "29689.9786595141"
        },
        "miss_distance" : {
          "astronomical" : "0.4076210554",
          "lunar" : "158.5645904541",
          "kilometers" : "60979244",
          "miles" : "37890744"
        },
        "orbiting_body" : "Earth"
      } ],
      "orbital_data" : {
        "orbit_id" : "33",
        "orbit_determination_date" : "2017-04-06 09:19:47",
        "orbit_uncertainty" : "1",
        "minimum_orbit_intersection" : ".0587097",
        "jupiter_tisserand_invariant" : "6.732",
        "epoch_osculation" : "2458000.5",
        "eccentricity" : ".2769762108605412",
        "semi_major_axis" : ".8735088009328226",
        "inclination" : "10.22693575073825",
        "ascending_node_longitude" : "216.8631007066718",
        "orbital_period" : "298.1943115146005",
        "perihelion_distance" : ".6315676430971147",
        "perihelion_argument" : "72.11375921899867",
        "aphelion_distance" : "1.11544995876853",
        "perihelion_time" : "2458106.931193108300",
        "mean_anomaly" : "231.5091869983175",
        "mean_motion" : "1.207266490670038",
        "equinox" : "J2000"
      }
    }, {
      "links" : {
        "self" : "https://api.nasa.gov/neo/rest/v1/neo/3406027?api_key=t0TVs3DtDT2H8Oy2Zy8m2eVrNsAVKAexjcZXUckd"
      },
      "neo_reference_id" : "3406027",
      "name" : "(2008 EZ84)",
      "nasa_jpl_url" : "http://ssd.jpl.nasa.gov/sbdb.cgi?sstr=3406027",
      "absolute_magnitude_h" : 26.2,
      "estimated_diameter" : {
        "kilometers" : {
          "estimated_diameter_min" : 0.0152951935,
          "estimated_diameter_max" : 0.0342010925
        },
        "meters" : {
          "estimated_diameter_min" : 15.2951935344,
          "estimated_diameter_max" : 34.201092472
        },
        "miles" : {
          "estimated_diameter_min" : 0.0095039897,
          "estimated_diameter_max" : 0.021251567
        },
        "feet" : {
          "estimated_diameter_min" : 50.1810827555,
          "estimated_diameter_max" : 112.2083122258
        }
      },
      "is_potentially_hazardous_asteroid" : false,
      "close_approach_data" : [ {
        "close_approach_date" : "2006-07-08",
        "epoch_date_close_approach" : 1152342000000,
        "relative_velocity" : {
          "kilometers_per_second" : "4.6848534857",
          "kilometers_per_hour" : "16865.472548523",
          "miles_per_hour" : "10479.5487621642"
        },
        "miss_distance" : {
          "astronomical" : "0.2912277581",
          "lunar" : "113.2875976562",
          "kilometers" : "43567052",
          "miles" : "27071312"
        },
        "orbiting_body" : "Earth"
      } ],
      "orbital_data" : {
        "orbit_id" : "6",
        "orbit_determination_date" : "2017-04-06 09:03:59",
        "orbit_uncertainty" : "7",
        "minimum_orbit_intersection" : ".000781806",
        "jupiter_tisserand_invariant" : "5.996",
        "epoch_osculation" : "2458000.5",
        "eccentricity" : ".1507047388710506",
        "semi_major_axis" : "1.010858825657562",
        "inclination" : "13.09877310352923",
        "ascending_node_longitude" : "169.5095114216767",
        "orbital_period" : "371.2224115347352",
        "perihelion_distance" : ".8585176103013422",
        "perihelion_argument" : "268.2234193090242",
        "aphelion_distance" : "1.163200041013781",
        "perihelion_time" : "2458169.094368965424",
        "mean_anomaly" : "196.5024014131391",
        "mean_motion" : ".9697690355268729",
        "equinox" : "J2000"
      }
    }, {
      "links" : {
        "self" : "https://api.nasa.gov/neo/rest/v1/neo/3655754?api_key=t0TVs3DtDT2H8Oy2Zy8m2eVrNsAVKAexjcZXUckd"
      },
      "neo_reference_id" : "3655754",
      "name" : "(2014 AZ16)",
      "nasa_jpl_url" : "http://ssd.jpl.nasa.gov/sbdb.cgi?sstr=3655754",
      "absolute_magnitude_h" : 24.1,
      "estimated_diameter" : {
        "kilometers" : {
          "estimated_diameter_min" : 0.040230458,
          "estimated_diameter_max" : 0.0899580388
        },
        "meters" : {
          "estimated_diameter_min" : 40.2304579834,
          "estimated_diameter_max" : 89.9580388169
        },
        "miles" : {
          "estimated_diameter_min" : 0.0249980399,
          "estimated_diameter_max" : 0.0558973165
        },
        "feet" : {
          "estimated_diameter_min" : 131.9896957704,
          "estimated_diameter_max" : 295.1379320721
        }
      },
      "is_potentially_hazardous_asteroid" : false,
      "close_approach_data" : [ {
        "close_approach_date" : "2006-07-08",
        "epoch_date_close_approach" : 1152342000000,
        "relative_velocity" : {
          "kilometers_per_second" : "13.1569793647",
          "kilometers_per_hour" : "47365.125712781",
          "miles_per_hour" : "29430.8471408111"
        },
        "miss_distance" : {
          "astronomical" : "0.150195259",
          "lunar" : "58.4259529114",
          "kilometers" : "22468890",
          "miles" : "13961521"
        },
        "orbiting_body" : "Earth"
      } ],
      "orbital_data" : {
        "orbit_id" : "13",
        "orbit_determination_date" : "2017-04-06 08:42:59",
        "orbit_uncertainty" : "6",
        "minimum_orbit_intersection" : ".0562109",
        "jupiter_tisserand_invariant" : "5.229",
        "epoch_osculation" : "2458000.5",
        "eccentricity" : ".2678910023493151",
        "semi_major_axis" : "1.202839507360412",
        "inclination" : "12.97246676933387",
        "ascending_node_longitude" : "291.2384562208863",
        "orbital_period" : "481.8478805255229",
        "perihelion_distance" : ".8806096260682751",
        "perihelion_argument" : "272.4309507275676",
        "aphelion_distance" : "1.525069388652549",
        "perihelion_time" : "2458199.080175919958",
        "mean_anomaly" : "211.6360324067085",
        "mean_motion" : ".747123759488927",
        "equinox" : "J2000"
      }
    } ]
  }
}